ONEWEB-0055             
1 45443U 20020V   24051.90396109  .00000482  00000+0  13239-2 0  9996
2 45443  87.9011 189.5000 0001606  98.9014 261.2296 13.11416513191561
ONEWEB-0093             
1 45444U 20020W   24051.87716621 -.00000407  00000+0 -11833-2 0  9995
2 45444  87.9016 189.4846 0001737  94.0783 266.0544 13.11418597191629
ONEWEB-0029             
1 45445U 20020X   24051.89665276  .00000359  00000+0  97577-3 0  9991
2 45445  87.9014 189.4939 0001826 101.9937 258.1396 13.11418702191602
ONEWEB-0068             
1 45446U 20020Y   24051.87147857 -.00000532  00000+0 -15383-2 0  9999
2 45446  87.9012 189.4844 0001761  98.7783 261.3545 13.11417567191549
ONEWEB-0046             
1 45447U 20020Z   24051.86904222 -.00000569  00000+0 -16427-2 0  9996
2 45447  87.9013 189.4973 0001843 114.3716 245.7604 13.11417649191550
ONEWEB-0063             
1 45448U 20020AA  24051.89828782  .00000430  00000+0  11780-2 0  9998
2 45448  87.9012 189.4935 0001673 117.2706 242.8592 13.11418633191648
ONEWEB-0019             
1 45449U 20020AB  24051.94857705 -.00000484  00000+0 -14019-2 0  9991
2 45449  87.9016 189.4819 0001430 104.5952 255.5334 13.11416298191490
ONEWEB-0094             
1 45450U 20020AC  24051.84136170 -.00000007  00000+0 -50953-4 0  9998
2 45450  87.9258 174.3751 0001762 105.4966 254.6361 13.19253963194726
ONEWEB-0087             
1 45451U 20020AD  24051.90476499  .00000526  00000+0  14485-2 0  9999
2 45451  87.9006 189.4700 0001946 103.8778 256.2566 13.11418006191530
ONEWEB-0082             
1 45452U 20020AE  24051.90639571  .00000459  00000+0  12592-2 0  9994
2 45452  87.9011 189.4685 0001565 101.5368 258.5936 13.11417720191624
ONEWEB-0050             
1 45453U 20020AF  24051.93122810  .00002376  00000+0  25182-3 0  9991
2 45453  87.9962  57.8208 0024956 122.8637 237.4997 14.88482501214176
ONEWEB-0034             
1 45454U 20020AG  24051.92588019 -.00000045  00000+0 -16346-3 0  9993
2 45454  87.9010 189.4827 0001664 104.2021 255.9292 13.11412805191545
ONEWEB-0060             
1 45455U 20020AH  24051.93397604 -.00000355  00000+0 -10373-2 0  9990
2 45455  87.9013 189.4774 0001766 106.8030 253.3291 13.11415587191508
ONEWEB-0086             
1 45456U 20020AJ  24051.87554007 -.00000472  00000+0 -13678-2 0  9997
2 45456  87.9013 189.4945 0002080  99.5354 260.6009 13.11418177191557
ONEWEB-0088             
1 45457U 20020AK  24051.92910701 -.00000184  00000+0 -55482-3 0  9991
2 45457  87.9004 189.4541 0001777 105.8550 254.2774 13.11415353191495
ONEWEB-0102             
1 47258U 20100A   24051.83585624  .00000132  00000+0  33152-3 0  9994
2 47258  87.9046 159.3039 0001587 110.7583 249.3716 13.12445152153580
ONEWEB-0109             
1 47259U 20100B   24051.84380413 -.00000088  00000+0 -28077-3 0  9997
2 47259  87.9047 159.2658 0001602 106.3035 253.8269 13.12442717153418
ONEWEB-0110             
1 47260U 20100C   24051.79138517 -.00000504  00000+0 -14368-2 0  9999
2 47260  87.9040 159.2881 0001648 101.4577 258.6737 13.12443510153570
ONEWEB-0111             
1 47261U 20100D   24051.82475116  .00000405  00000+0  10899-2 0  9996
2 47261  87.9046 159.2722 0001665 105.0716 255.0597 13.12443530153415
ONEWEB-0114             
1 47262U 20100E   24051.85491677 -.00000374  00000+0 -10747-2 0  9999
2 47262  87.9041 159.2869 0001237 114.9780 245.1477 13.12443604153372
ONEWEB-0117             
1 47263U 20100F   24051.84698390 -.00000263  00000+0 -76511-3 0  9999
2 47263  87.9046 159.2586 0001787 107.1662 252.9663 13.12442708153385
ONEWEB-0118             
1 47264U 20100G   24051.80250775 -.00000080  00000+0 -25651-3 0  9993
2 47264  87.9045 159.2719 0001508 127.5138 232.6128 13.12444629153574
ONEWEB-0119             
1 47265U 20100H   24051.83110395  .00000310  00000+0  82740-3 0  9996
2 47265  87.9046 159.3047 0001741 104.0026 256.1296 13.12442944153559
ONEWEB-0120             
1 47266U 20100J   24051.85412536 -.00003774  00000+0 -10528-1 0  9993
2 47266  87.9046 159.2882 0001671 111.3707 248.7600 13.12454907153586
ONEWEB-0121             
1 47267U 20100K   24051.84221853 -.00000101  00000+0 -31725-3 0  9998
2 47267  87.9040 159.2869 0001879 103.9853 256.1485 13.12442373153493
ONEWEB-0122             
1 47268U 20100L   24051.83731665  .00000129  00000+0  32235-3 0  9990
2 47268  87.9041 159.2924 0001601 104.7480 255.3826 13.12443859153406
ONEWEB-0123             
1 47269U 20100M   24051.83268983  .00000239  00000+0  63027-3 0  9994
2 47269  87.9045 159.3032 0001692 107.8775 252.2538 13.12443174153544
ONEWEB-0124             
1 47270U 20100N   24051.82156419  .00000442  00000+0  11924-2 0  9999
2 47270  87.9046 159.3013 0001886  98.8236 261.3106 13.12445300153424
ONEWEB-0125             
1 47271U 20100P   24051.79615213 -.00000246  00000+0 -71823-3 0  9997
2 47271  87.9047 159.2639 0002070 115.5945 244.5398 13.12444995153480
ONEWEB-0126             
1 47272U 20100Q   24051.82395661  .00000467  00000+0  12618-2 0  9993
2 47272  87.9043 159.2697 0001568 106.7629 253.3672 13.12441616153551
ONEWEB-0127             
1 47273U 20100R   24051.86127072 -.00000373  00000+0 -10718-2 0  9994
2 47273  87.9047 159.2863 0001601 108.1844 251.9459 13.12444041153589
ONEWEB-0128             
1 47274U 20100S   24051.80727621  .00000095  00000+0  22817-3 0  9998
2 47274  87.9053 159.2934 0001745  95.2315 264.9013 13.12444135153599
ONEWEB-0129             
1 47275U 20100T   24051.78661883 -.00000410  00000+0 -11739-2 0  9996
2 47275  87.9046 159.2718 0000549 181.0907 179.0220 13.12444963153522
ONEWEB-0130             
1 47276U 20100U   24051.81522054  .00000345  00000+0  92495-3 0  9991
2 47276  87.9044 159.2760 0001608 101.6220 258.5089 13.12444492153490
ONEWEB-0131             
1 47277U 20100V   24051.81204645  .00000256  00000+0  67532-3 0  9990
2 47277  87.9048 159.2880 0001777 103.0567 257.0760 13.12444629153532
ONEWEB-0132             
1 47278U 20100W   24051.84062718  .00000034  00000+0  60234-4 0  9994
2 47278  87.9047 159.2843 0002002 106.0463 254.0886 13.12442432153436
ONEWEB-0133             
1 47279U 20100X   24051.85650872 -.00000398  00000+0 -11429-2 0  9995
2 47279  87.9041 159.2864 0001805 103.4021 256.7309 13.12443392153597
ONEWEB-0134             
1 47280U 20100Y   24051.82634035  .00000360  00000+0  96578-3 0  9993
2 47280  87.9040 159.2816 0001623  97.4134 262.7179 13.12441772153569
ONEWEB-0135             
1 47281U 20100Z   24051.79456126 -.00000266  00000+0 -77501-3 0  9995
2 47281  87.9045 159.2967 0001688 103.9910 256.1406 13.12445311153583
ONEWEB-0136             
1 47282U 20100AA  24051.81680867  .00000406  00000+0  10919-2 0  9993
2 47282  87.9047 159.2610 0001362  90.4091 269.7194 13.12443790153516
ONEWEB-0137             
1 47283U 20100AB  24051.85015707 -.00000278  00000+0 -80822-3 0  9993
2 47283  87.9041 159.2843 0001607 111.7015 248.4285 13.12442867153423
ONEWEB-0138             
1 47284U 20100AC  24051.82951275  .00000342  00000+0  91573-3 0  9995
2 47284  87.9041 159.3008 0001649 106.9341 253.1968 13.12443522153501
ONEWEB-0139             
1 47285U 20100AD  24051.80092031 -.00000099  00000+0 -31048-3 0  9992
2 47285  87.9047 159.2734 0001704 104.5141 255.6177 13.12445111153579
ONEWEB-0140             
1 47286U 20100AE  24051.82316068  .00000444  00000+0  12000-2 0  9992
2 47286  87.9041 159.2773 0001606 102.8811 257.2497 13.12444216153537
ONEWEB-0141             
1 47287U 20100AF  24051.84300772  .00001456  00000+0  40129-2 0  9997
2 47287  87.9042 159.2713 0002036 111.0799 249.0548 13.12435415153535
ONEWEB-0142             
1 47288U 20100AG  24051.83665929  .00000167  00000+0  42947-3 0  9994
2 47288  87.9044 159.2656 0001470 112.3936 247.7348 13.12441084153523
ONEWEB-0143             
1 47289U 20100AH  24051.78980002 -.00000387  00000+0 -11099-2 0  9990
2 47289  87.9044 159.2939 0001793 108.7197 251.4126 13.12444599153490
ONEWEB-0144             
1 47290U 20100AJ  24051.83904015  .00000044  00000+0  87392-4 0  9997
2 47290  87.9044 159.2680 0001359 111.1042 249.0232 13.12440849153428
ONEWEB-0145             
1 47291U 20100AK  24051.81045223  .00000197  00000+0  51236-3 0  9999
2 47291  87.9045 159.2975 0001593 107.9968 252.1334 13.12444766153618
ONEWEB-0146             
1 47292U 20100AL  24051.80570791  .00000057  00000+0  12409-3 0  9996
2 47292  87.9044 159.2805 0002237 105.7305 254.4071 13.12444923153525
ONEWEB-0147             
1 47293U 20100AM  24051.84857080 -.00000254  00000+0 -74215-3 0  9994
2 47293  87.9042 159.2705 0001562  96.8162 263.3144 13.12442697153429
ONEWEB-0115             
1 48042U 21025A   24051.77582911 -.00000331  00000+0 -94169-3 0  9990
2 48042  87.8980 128.9335 0002074 102.3868 257.7493 13.13468228142352
ONEWEB-0152             
1 48043U 21025B   24051.71235264 -.00000179  00000+0 -52393-3 0  9994
2 48043  87.8984 128.9387 0001910 100.8311 259.3033 13.13470954142300
ONEWEB-0153             
1 48044U 21025C   24051.76630985 -.00000255  00000+0 -73396-3 0  9990
2 48044  87.8988 128.9130 0001789 104.2934 255.8394 13.13467633142305
ONEWEB-0154             
1 48045U 21025D   24051.76313767 -.00000211  00000+0 -61164-3 0  9999
2 48045  87.8984 128.9288 0001872 102.2667 257.8671 13.13467747142261
ONEWEB-0116             
1 48046U 21025E   24052.18529475  .00000263  00000+0  68449-3 0  9990
2 48046  87.8987 128.8101 0002075 101.4007 258.7355 13.13471249142466
ONEWEB-0150             
1 48047U 21025F   24051.70282873 -.00000304  00000+0 -86776-3 0  9997
2 48047  87.8981 128.9317 0001813 108.4224 251.7102 13.13470746142293
ONEWEB-0107             
1 48048U 21025G   24051.70442067 -.00000284  00000+0 -81361-3 0  9993
2 48048  87.8979 128.9293 0001652 112.4757 247.6548 13.13470768142271
ONEWEB-0101             
1 48049U 21025H   24051.74410717  .00000265  00000+0  69154-3 0  9998
2 48049  87.8986 128.9311 0001780 100.3701 259.7629 13.13469798142251
